GOES 18                 
1 51850U 22021A   26095.71782896  .00000098  00000+0  00000+0 0  9991
2 51850   0.0479  40.6556 0000631  33.1922 241.5875  1.00270694  5867
GOES 19                 
1 60133U 24119A   26095.80137554 -.00000247  00000+0  00000+0 0  9997
2 60133   0.0442  41.6631 0000975  16.5716 349.1621  1.00271085  6234
